{
  "type": "FeatureCollection",
  "features": [
    {
      "type": "Feature",
      "properties": {
        "norad_id": 34070,
        "name": "COSMOS 2251 DEB",
        "group": "cosmos-2251-debris",
        "lat": 73.90603876268221,
        "lon": -173.1868397684603,
        "alt_km": 635.5262265432566,
        "timestamp": "2025-12-25T16:53:15.057466+00:00",
        "meta_object_name": "COSMOS 2251 DEB",
        "meta_object_id": "1993-036KH",
        "meta_epoch": "2025-12-25T01:01:03.747072",
        "meta_mean_motion": 14.774265,
        "meta_eccentricity": 0.00178437,
        "meta_inclination": 74.0006,
        "meta_ra_of_asc_node": 92.0864,
        "meta_arg_of_pericenter": 209.6173,
        "meta_mean_anomaly": 326.6955,
        "meta_ephemeris_type": 0,
        "meta_classification_type": "U",
        "meta_norad_cat_id": 34070,
        "meta_element_set_no": 999,
        "meta_rev_at_epoch": 88792,
        "meta_bstar": 0.0025645795,
        "meta_mean_motion_dot": 0.00018324,
        "meta_mean_motion_ddot": 0,
        "tle_line1": "1 34070U 93036KH  25359.04240448  .00018324  00000+0  25646-2 0  9997",
        "tle_line2": "2 34070  74.0006  92.0864 0017843 209.6173 326.6955 14.77426500887929"
      },
      "geometry": {
        "type": "Point",
        "coordinates": [
          -173.1868397684603,
          73.90603876268221
        ]
      }
    },
    {
      "type": "Feature",
      "properties": {
        "norad_id": 34114,
        "name": "COSMOS 2251 DEB",
        "group": "cosmos-2251-debris",
        "lat": 48.812716002570724,
        "lon": 38.330061750665195,
        "alt_km": 674.1277319592609,
        "timestamp": "2025-12-25T16:53:15.057476+00:00",
        "meta_object_name": "COSMOS 2251 DEB",
        "meta_object_id": "1993-036KK",
        "meta_epoch": "2025-12-25T03:45:09.213696",
        "meta_mean_motion": 14.56541889,
        "meta_eccentricity": 0.00481881,
        "meta_inclination": 74.059,
        "meta_ra_of_asc_node": 20.3021,
        "meta_arg_of_pericenter": 10.7943,
        "meta_mean_anomaly": 51.8397,
        "meta_ephemeris_type": 0,
        "meta_classification_type": "U",
        "meta_norad_cat_id": 34114,
        "meta_element_set_no": 999,
        "meta_rev_at_epoch": 87982,
        "meta_bstar": 0.0018142239,
        "meta_mean_motion_dot": 8.185e-05,
        "meta_mean_motion_ddot": 0,
        "tle_line1": "1 34114U 93036KK  25359.15635664  .00008185  00000+0  18142-2 0  9993",
        "tle_line2": "2 34114  74.0590  20.3021 0048188  10.7943  51.8397 14.56541889879829"
      },
      "geometry": {
        "type": "Point",
        "coordinates": [
          38.330061750665195,
          48.812716002570724
        ]
      }
    },
    {
      "type": "Feature",
      "properties": {
        "norad_id": 34115,
        "name": "COSMOS 2251 DEB",
        "group": "cosmos-2251-debris",
        "lat": 17.178399496401195,
        "lon": 31.291628203291044,
        "alt_km": 642.5091109175928,
        "timestamp": "2025-12-25T16:53:15.057486+00:00",
        "meta_object_name": "COSMOS 2251 DEB",
        "meta_object_id": "1993-036KL",
        "meta_epoch": "2025-12-24T20:41:15.945504",
        "meta_mean_motion": 14.79642314,
        "meta_eccentricity": 0.00290516,
        "meta_inclination": 74.005,
        "meta_ra_of_asc_node": 218.0383,
        "meta_arg_of_pericenter": 37.9328,
        "meta_mean_anomaly": 322.3887,
        "meta_ephemeris_type": 0,
        "meta_classification_type": "U",
        "meta_norad_cat_id": 34115,
        "meta_element_set_no": 999,
        "meta_rev_at_epoch": 89591,
        "meta_bstar": 0.00087982801,
        "meta_mean_motion_dot": 6.619e-05,
        "meta_mean_motion_ddot": 0,
        "tle_line1": "1 34115U 93036KL  25358.86199011  .00006619  00000+0  87983-3 0  9992",
        "tle_line2": "2 34115  74.0050 218.0383 0029051  37.9328 322.3887 14.79642314895912"
      },
      "geometry": {
        "type": "Point",
        "coordinates": [
          31.291628203291044,
          17.178399496401195
        ]
      }
    },
    {
      "type": "Feature",
      "properties": {
        "norad_id": 34116,
        "name": "COSMOS 2251 DEB",
        "group": "cosmos-2251-debris",
        "lat": -31.89081844193309,
        "lon": 148.0649234197929,
        "alt_km": 721.7622278349236,
        "timestamp": "2025-12-25T16:53:15.057497+00:00",
        "meta_object_name": "COSMOS 2251 DEB",
        "meta_object_id": "1993-036KM",
        "meta_epoch": "2025-12-24T21:46:30.483264",
        "meta_mean_motion": 14.53047531,
        "meta_eccentricity": 0.0011798,
        "meta_inclination": 74.0399,
        "meta_ra_of_asc_node": 159.8239,
        "meta_arg_of_pericenter": 236.014,
        "meta_mean_anomaly": 246.6341,
        "meta_ephemeris_type": 0,
        "meta_classification_type": "U",
        "meta_norad_cat_id": 34116,
        "meta_element_set_no": 999,
        "meta_rev_at_epoch": 88663,
        "meta_bstar": 0.00088233,
        "meta_mean_motion_dot": 3.622e-05,
        "meta_mean_motion_ddot": 0,
        "tle_line1": "1 34116U 93036KM  25358.90729726  .00003622  00000+0  88233-3 0  9990",
        "tle_line2": "2 34116  74.0399 159.8239 0011798 236.0140 246.6341 14.53047531886638"
      },
      "geometry": {
        "type": "Point",
        "coordinates": [
          148.0649234197929,
          -31.89081844193309
        ]
      }
    },
    {
      "type": "Feature",
      "properties": {
        "norad_id": 34117,
        "name": "COSMOS 2251 DEB",
        "group": "cosmos-2251-debris",
        "lat": -73.95396984345071,
        "lon": -135.87699649702213,
        "alt_km": 787.2213410078475,
        "timestamp": "2025-12-25T16:53:15.057507+00:00",
        "meta_object_name": "COSMOS 2251 DEB",
        "meta_object_id": "1993-036KN",
        "meta_epoch": "2025-12-24T22:58:17.429088",
        "meta_mean_motion": 14.40060844,
        "meta_eccentricity": 0.00550945,
        "meta_inclination": 74.0405,
        "meta_ra_of_asc_node": 321.255,
        "meta_arg_of_pericenter": 34.204,
        "meta_mean_anomaly": 326.2643,
        "meta_ephemeris_type": 0,
        "meta_classification_type": "U",
        "meta_norad_cat_id": 34117,
        "meta_element_set_no": 999,
        "meta_rev_at_epoch": 88299,
        "meta_bstar": 0.00078833237,
        "meta_mean_motion_dot": 2.505e-05,
        "meta_mean_motion_ddot": 0,
        "tle_line1": "1 34117U 93036KN  25358.95714617  .00002505  00000+0  78833-3 0  9993",
        "tle_line2": "2 34117  74.0405 321.2550 0055094  34.2040 326.2643 14.40060844882995"
      },
      "geometry": {
        "type": "Point",
        "coordinates": [
          -135.87699649702213,
          -73.95396984345071
        ]
      }
    },
    {
      "type": "Feature",
      "properties": {
        "norad_id": 34118,
        "name": "COSMOS 2251 DEB",
        "group": "cosmos-2251-debris",
        "lat": -16.595255530302563,
        "lon": -141.86024753177358,
        "alt_km": 572.4588175419003,
        "timestamp": "2025-12-25T16:53:15.057518+00:00",
        "meta_object_name": "COSMOS 2251 DEB",
        "meta_object_id": "1993-036KP",
        "meta_epoch": "2025-12-25T01:26:14.165952",
        "meta_mean_motion": 14.94332267,
        "meta_eccentricity": 0.00600943,
        "meta_inclination": 73.9504,
        "meta_ra_of_asc_node": 224.3646,
        "meta_arg_of_pericenter": 51.4122,
        "meta_mean_anomaly": 70.3118,
        "meta_ephemeris_type": 0,
        "meta_classification_type": "U",
        "meta_norad_cat_id": 34118,
        "meta_element_set_no": 999,
        "meta_rev_at_epoch": 89360,
        "meta_bstar": 0.0014864319,
        "meta_mean_motion_dot": 0.00016564,
        "meta_mean_motion_ddot": 0,
        "tle_line1": "1 34118U 93036KP  25359.05988618  .00016564  00000+0  14864-2 0  9993",
        "tle_line2": "2 34118  73.9504 224.3646 0060094  51.4122  70.3118 14.94332267893605"
      },
      "geometry": {
        "type": "Point",
        "coordinates": [
          -141.86024753177358,
          -16.595255530302563
        ]
      }
    },
    {
      "type": "Feature",
      "properties": {
        "norad_id": 34120,
        "name": "COSMOS 2251 DEB",
        "group": "cosmos-2251-debris",
        "lat": -70.38801211779858,
        "lon": 67.45003935948608,
        "alt_km": 969.9684574623507,
        "timestamp": "2025-12-25T16:53:15.057528+00:00",
        "meta_object_name": "COSMOS 2251 DEB",
        "meta_object_id": "1993-036KR",
        "meta_epoch": "2025-12-25T00:47:17.002752",
        "meta_mean_motion": 13.98697063,
        "meta_eccentricity": 0.01824983,
        "meta_inclination": 73.9901,
        "meta_ra_of_asc_node": 194.9271,
        "meta_arg_of_pericenter": 19.8929,
        "meta_mean_anomaly": 104.0058,
        "meta_ephemeris_type": 0,
        "meta_classification_type": "U",
        "meta_norad_cat_id": 34120,
        "meta_element_set_no": 999,
        "meta_rev_at_epoch": 86152,
        "meta_bstar": 0.00029937208,
        "meta_mean_motion_dot": 4.72e-06,
        "meta_mean_motion_ddot": 0,
        "tle_line1": "1 34120U 93036KR  25359.03283568  .00000472  00000+0  29937-3 0  9995",
        "tle_line2": "2 34120  73.9901 194.9271 0182498  19.8929 104.0058 13.98697063861526"
      },
      "geometry": {
        "type": "Point",
        "coordinates": [
          67.45003935948608,
          -70.38801211779858
        ]
      }
    }
  ]
}